[{"OBJECT_NAME":"QIANFAN-19","OBJECT_ID":"2024-185A","EPOCH":"2026-03-09T23:01:49.129824","MEAN_MOTION":14.14392209,"ECCENTRICITY":0.00082129,"INCLINATION":88.9763,"RA_OF_ASC_NODE":67.9253,"ARG_OF_PERICENTER":39.7684,"MEAN_ANOMALY":320.4104,"EPHEMERIS_TYPE":0,"CLASSIFICATION_TYPE":"U","NORAD_CAT_ID":61552,"ELEMENT_SET_NO":999,"REV_AT_EPOCH":8199,"BSTAR":0.00030187594,"MEAN_MOTION_DOT":5.92e-6,"MEAN_MOTION_DDOT":0},{"OBJECT_NAME":"METEOR 1-27","OBJECT_ID":"1977-024A","EPOCH":"2026-03-09T23:17:31.531776","MEAN_MOTION":14.08733691,"ECCENTRICITY":0.00369171,"INCLINATION":81.2736,"RA_OF_ASC_NODE":233.6532,"ARG_OF_PERICENTER":283.3266,"MEAN_ANOMALY":76.3789,"EPHEMERIS_TYPE":0,"CLASSIFICATION_TYPE":"U","NORAD_CAT_ID":9903,"ELEMENT_SET_NO":999,"REV_AT_EPOCH":51358,"BSTAR":3.7759636e-5,"MEAN_MOTION_DOT":7.8e-7,"MEAN_MOTION_DDOT":0}]
